{
  "type": "FeatureCollection",
  "features": [
    {
      "type": "Feature",
      "properties": {
        "norad_id": 31480,
        "name": "FENGYUN 1C DEB",
        "group": "fengyun-1c-debris",
        "lat": 51.97148478288708,
        "lon": 23.909417154115612,
        "alt_km": 999.4047331534757,
        "timestamp": "2025-12-07T09:35:10.073035+00:00",
        "meta_object_name": "FENGYUN 1C DEB",
        "meta_object_id": "1999-025BVU",
        "meta_epoch": "2025-12-03T01:16:02.255232",
        "meta_mean_motion": 13.89712838,
        "meta_eccentricity": 0.03465904,
        "meta_inclination": 98.3377,
        "meta_ra_of_asc_node": 189.1974,
        "meta_arg_of_pericenter": 248.3313,
        "meta_mean_anomaly": 108.0609,
        "meta_ephemeris_type": 0,
        "meta_classification_type": "U",
        "meta_norad_cat_id": 31480,
        "meta_element_set_no": 999,
        "meta_rev_at_epoch": 93261,
        "meta_bstar": 0.0047376681,
        "meta_mean_motion_dot": 9.4e-05,
        "meta_mean_motion_ddot": 0,
        "tle_line1": "1 31480U 99025BVU 25337.05280388  .00009400  00000+0  47377-2 0  9997",
        "tle_line2": "2 31480  98.3377 189.1974 0346590 248.3313 108.0609 13.89712838932610"
      },
      "geometry": {
        "type": "Point",
        "coordinates": [
          23.909417154115612,
          51.97148478288708
        ]
      }
    },
    {
      "type": "Feature",
      "properties": {
        "norad_id": 31482,
        "name": "FENGYUN 1C DEB",
        "group": "fengyun-1c-debris",
        "lat": 39.822872640058435,
        "lon": -21.657446198749422,
        "alt_km": 782.6006877220461,
        "timestamp": "2025-12-07T09:35:10.073046+00:00",
        "meta_object_name": "FENGYUN 1C DEB",
        "meta_object_id": "1999-025BVW",
        "meta_epoch": "2025-12-06T19:10:34.919328",
        "meta_mean_motion": 14.35617029,
        "meta_eccentricity": 0.00889787,
        "meta_inclination": 98.3821,
        "meta_ra_of_asc_node": 344.8211,
        "meta_arg_of_pericenter": 300.1995,
        "meta_mean_anomaly": 237.9778,
        "meta_ephemeris_type": 0,
        "meta_classification_type": "U",
        "meta_norad_cat_id": 31482,
        "meta_element_set_no": 999,
        "meta_rev_at_epoch": 97044,
        "meta_bstar": 0.001395546,
        "meta_mean_motion_dot": 4.166e-05,
        "meta_mean_motion_ddot": 0,
        "tle_line1": "1 31482U 99025BVW 25340.79901527  .00004166  00000+0  13955-2 0  9998",
        "tle_line2": "2 31482  98.3821 344.8211 0088978 300.1995 237.9778 14.35617029970446"
      },
      "geometry": {
        "type": "Point",
        "coordinates": [
          -21.657446198749422,
          39.822872640058435
        ]
      }
    },
    {
      "type": "Feature",
      "properties": {
        "norad_id": 31483,
        "name": "FENGYUN 1C DEB",
        "group": "fengyun-1c-debris",
        "lat": -76.40866617408662,
        "lon": 42.94089818964118,
        "alt_km": 771.6224944519772,
        "timestamp": "2025-12-07T09:35:10.073056+00:00",
        "meta_object_name": "FENGYUN 1C DEB",
        "meta_object_id": "1999-025BVX",
        "meta_epoch": "2025-12-06T02:07:45.156576",
        "meta_mean_motion": 14.15905487,
        "meta_eccentricity": 0.01192105,
        "meta_inclination": 102.5024,
        "meta_ra_of_asc_node": 287.7075,
        "meta_arg_of_pericenter": 237.7726,
        "meta_mean_anomaly": 188.3627,
        "meta_ephemeris_type": 0,
        "meta_classification_type": "U",
        "meta_norad_cat_id": 31483,
        "meta_element_set_no": 999,
        "meta_rev_at_epoch": 94612,
        "meta_bstar": 0.0045256086,
        "meta_mean_motion_dot": 9.487e-05,
        "meta_mean_motion_ddot": 0,
        "tle_line1": "1 31483U 99025BVX 25340.08871709  .00009487  00000+0  45256-2 0  9999",
        "tle_line2": "2 31483 102.5024 287.7075 0119210 237.7726 188.3627 14.15905487946120"
      },
      "geometry": {
        "type": "Point",
        "coordinates": [
          42.94089818964118,
          -76.40866617408662
        ]
      }
    },
    {
      "type": "Feature",
      "properties": {
        "norad_id": 31484,
        "name": "FENGYUN 1C DEB",
        "group": "fengyun-1c-debris",
        "lat": -9.966748534874897,
        "lon": -82.22865844446778,
        "alt_km": 787.5064611043317,
        "timestamp": "2025-12-07T09:35:10.073067+00:00",
        "meta_object_name": "FENGYUN 1C DEB",
        "meta_object_id": "1999-025BVY",
        "meta_epoch": "2025-12-04T02:08:44.405376",
        "meta_mean_motion": 14.49883336,
        "meta_eccentricity": 0.00826208,
        "meta_inclination": 101.8049,
        "meta_ra_of_asc_node": 271.0436,
        "meta_arg_of_pericenter": 175.5748,
        "meta_mean_anomaly": 184.6182,
        "meta_ephemeris_type": 0,
        "meta_classification_type": "U",
        "meta_norad_cat_id": 31484,
        "meta_element_set_no": 999,
        "meta_rev_at_epoch": 64112,
        "meta_bstar": 0.011456506,
        "meta_mean_motion_dot": 0.00046489,
        "meta_mean_motion_ddot": 0,
        "tle_line1": "1 31484U 99025BVY 25338.08940284  .00046489  00000+0  11457-1 0  9990",
        "tle_line2": "2 31484 101.8049 271.0436 0082620 175.5748 184.6182 14.49883336641126"
      },
      "geometry": {
        "type": "Point",
        "coordinates": [
          -82.22865844446778,
          -9.966748534874897
        ]
      }
    },
    {
      "type": "Feature",
      "properties": {
        "norad_id": 31485,
        "name": "FENGYUN 1C DEB",
        "group": "fengyun-1c-debris",
        "lat": 39.97292126034839,
        "lon": 156.35103136252914,
        "alt_km": 983.3725450435004,
        "timestamp": "2025-12-07T09:35:10.073077+00:00",
        "meta_object_name": "FENGYUN 1C DEB",
        "meta_object_id": "1999-025BVZ",
        "meta_epoch": "2025-12-05T05:25:51.734208",
        "meta_mean_motion": 13.39990028,
        "meta_eccentricity": 0.04455994,
        "meta_inclination": 102.7187,
        "meta_ra_of_asc_node": 164.5369,
        "meta_arg_of_pericenter": 335.1163,
        "meta_mean_anomaly": 22.9046,
        "meta_ephemeris_type": 0,
        "meta_classification_type": "U",
        "meta_norad_cat_id": 31485,
        "meta_element_set_no": 999,
        "meta_rev_at_epoch": 90344,
        "meta_bstar": 0.0052606302,
        "meta_mean_motion_dot": 5.061e-05,
        "meta_mean_motion_ddot": 0,
        "tle_line1": "1 31485U 99025BVZ 25339.22629322  .00005061  00000+0  52606-2 0  9998",
        "tle_line2": "2 31485 102.7187 164.5369 0445599 335.1163  22.9046 13.39990028903448"
      },
      "geometry": {
        "type": "Point",
        "coordinates": [
          156.35103136252914,
          39.97292126034839
        ]
      }
    },
    {
      "type": "Feature",
      "properties": {
        "norad_id": 31487,
        "name": "FENGYUN 1C DEB",
        "group": "fengyun-1c-debris",
        "lat": 50.61953974842104,
        "lon": -16.430619889143557,
        "alt_km": 982.4946567489333,
        "timestamp": "2025-12-07T09:35:10.073087+00:00",
        "meta_object_name": "FENGYUN 1C DEB",
        "meta_object_id": "1999-025BWB",
        "meta_epoch": "2025-12-05T06:17:59.588736",
        "meta_mean_motion": 13.97683176,
        "meta_eccentricity": 0.0119984,
        "meta_inclination": 102.4135,
        "meta_ra_of_asc_node": 145.1269,
        "meta_arg_of_pericenter": 324.2493,
        "meta_mean_anomaly": 215.8967,
        "meta_ephemeris_type": 0,
        "meta_classification_type": "U",
        "meta_norad_cat_id": 31487,
        "meta_element_set_no": 999,
        "meta_rev_at_epoch": 94307,
        "meta_bstar": 0.0023273738,
        "meta_mean_motion_dot": 3.422e-05,
        "meta_mean_motion_ddot": 0,
        "tle_line1": "1 31487U 99025BWB 25339.26249524  .00003422  00000+0  23274-2 0  9994",
        "tle_line2": "2 31487 102.4135 145.1269 0119984 324.2493 215.8967 13.97683176943070"
      },
      "geometry": {
        "type": "Point",
        "coordinates": [
          -16.430619889143557,
          50.61953974842104
        ]
      }
    },
    {
      "type": "Feature",
      "properties": {
        "norad_id": 31491,
        "name": "FENGYUN 1C DEB",
        "group": "fengyun-1c-debris",
        "lat": -44.45298814168337,
        "lon": -100.98639491016546,
        "alt_km": 808.7001895289541,
        "timestamp": "2025-12-07T09:35:10.073101+00:00",
        "meta_object_name": "FENGYUN 1C DEB",
        "meta_object_id": "1999-025BWE",
        "meta_epoch": "2025-12-06T04:59:33.394560",
        "meta_mean_motion": 14.1718589,
        "meta_eccentricity": 0.00532624,
        "meta_inclination": 99.3042,
        "meta_ra_of_asc_node": 248.5122,
        "meta_arg_of_pericenter": 286.6061,
        "meta_mean_anomaly": 72.9267,
        "meta_ephemeris_type": 0,
        "meta_classification_type": "U",
        "meta_norad_cat_id": 31491,
        "meta_element_set_no": 999,
        "meta_rev_at_epoch": 63635,
        "meta_bstar": 0.0031475615,
        "meta_mean_motion_dot": 6.393e-05,
        "meta_mean_motion_ddot": 0,
        "tle_line1": "1 31491U 99025BWE 25340.20802540  .00006393  00000+0  31476-2 0  9991",
        "tle_line2": "2 31491  99.3042 248.5122 0053262 286.6061  72.9267 14.17185890636358"
      },
      "geometry": {
        "type": "Point",
        "coordinates": [
          -100.98639491016546,
          -44.45298814168337
        ]
      }
    }
  ]
}